ONEWEB-0311             
1 49097U 21075Y   25365.58058317 -.00000023  00000+0 -92851-4 0  9997
2 49097  87.9100  39.1753 0002032 105.0319 255.1038 13.17650591211556
ONEWEB-0312             
1 49098U 21075Z   25365.59578994  .00000064  00000+0  13207-3 0  9997
2 49098  87.9090  39.1963 0001686 108.3680 251.7636 13.17648853211531
ONEWEB-0313             
1 49099U 21075AA  25365.60071667 -.00000007  00000+0 -50171-4 0  9996
2 49099  87.9088  39.2024 0001805  99.5881 260.5455 13.17648692211522
ONEWEB-0314             
1 49100U 21075AB  25365.56710278 -.00000017  00000+0 -77631-4 0  9993
2 49100  87.9103  39.1644 0001719 109.0552 251.0766 13.17649229211499
ONEWEB-0315             
1 49101U 21075AC  25365.56298046 -.00000077  00000+0 -24880-3 0  9991
2 49101  87.8929  23.9309 0002088  99.1649 260.9716 13.12443033213182
ONEWEB-0316             
1 49102U 21075AD  25365.54767844  .00000043  00000+0  75779-4 0  9992
2 49102  87.9172   8.7555 0001800  92.2537 267.8801 13.18687689215118
ONEWEB-0317             
1 49103U 21075AE  25365.48374842 -.00000144  00000+0 -43846-3 0  9991
2 49103  87.8928  23.9661 0001151  72.2229 287.9025 13.11885647213193
ONEWEB-0318             
1 49104U 21075AF  25365.54437895  .00000014  00000+0  24694-5 0  9993
2 49104  87.9173   8.7439 0001886  97.0394 263.0953 13.18687223215075
